$$SOE
2460728.500000000, A.D. 2025-Feb-22 00:00:00.0000, 2.950756723194770E+08, 3.682345489683221E+08, -8.434653958876653E+07,
2460735.500000000, A.D. 2025-Mar-01 00:00:00.0000, 2.876093331940697E+08, 3.749353503073436E+08, -8.386190149280034E+07,
2460742.500000000, A.D. 2025-Mar-08 00:00:00.0000, 2.800165875200041E+08, 3.814716245845504E+08, -8.334039234731960E+07,
2460749.500000000, A.D. 2025-Mar-15 00:00:00.0000, 2.723012070577948E+08, 3.878411021757688E+08, -8.278237031181848E+07,
2460756.500000000, A.D. 2025-Mar-22 00:00:00.0000, 2.644669888646125E+08, 3.940416041700077E+08, -8.218820658639854E+07,
2460763.500000000, A.D. 2025-Mar-29 00:00:00.0000, 2.565177523568478E+08, 4.000710402852254E+08, -8.155828512511581E+07,
2460770.500000000, A.D. 2025-Apr-05 00:00:00.0000, 2.484573381105558E+08, 4.059274076238399E+08, -8.089300243427925E+07,
2460777.500000000, A.D. 2025-Apr-12 00:00:00.0000, 2.402896064738204E+08, 4.116087903734117E+08, -8.019276727083315E+07,
2460784.500000000, A.D. 2025-Apr-19 00:00:00.0000, 2.320184358036055E+08, 4.171133595735843E+08, -7.945800029607707E+07,
2460791.500000000, A.D. 2025-Apr-26 00:00:00.0000, 2.236477205988482E+08, 4.224393727490079E+08, -7.868913372676632E+07,
2460798.500000000, A.D. 2025-May-03 00:00:00.0000, 2.151813696436028E+08, 4.275851734300958E+08, -7.788661099295442E+07,
2460805.500000000, A.D. 2025-May-10 00:00:00.0000, 2.066233041888673E+08, 4.325491905728223E+08, -7.705088640491670E+07,
2460812.500000000, A.D. 2025-May-17 00:00:00.0000, 1.979774562097322E+08, 4.373299378389733E+08, -7.618242483622736E+07,
2460819.500000000, A.D. 2025-May-24 00:00:00.0000, 1.892477669115742E+08, 4.419260126848833E+08, -7.528170144370720E+07,
2460826.500000000, A.D. 2025-May-31 00:00:00.0000, 1.804381859030044E+08, 4.463360955723926E+08, -7.434920143754059E+07,
2460833.500000000, A.D. 2025-Jun-07 00:00:00.0000, 1.715526706351517E+08, 4.505589505091608E+08, -7.338541976675786E+07,
2460840.500000000, A.D. 2025-Jun-14 00:00:00.0000, 1.625951837424965E+08, 4.545934262518507E+08, -7.239086055747287E+07,
2460847.500000000, A.D. 2025-Jun-21 00:00:00.0000, 1.535696894998666E+08, 4.584384549023154E+08, -7.136603668240868E+07,
2460854.500000000, A.D. 2025-Jun-28 00:00:00.0000, 1.444801525234995E+08, 4.620930496656532E+08, -7.031146960509740E+07,
2460861.500000000, A.D. 2025-Jul-05 00:00:00.0000, 1.353305372002151E+08, 4.655563039285915E+08, -6.922768918378663E+07,
2460868.500000000, A.D. 2025-Jul-12 00:00:00.0000, 1.261248066530517E+08, 4.688273908537446E+08, -6.811523339142974E+07,
2460875.500000000, A.D. 2025-Jul-19 00:00:00.0000, 1.168669214319630E+08, 4.719055629162434E+08, -6.697464801604606E+07,
2460882.500000000, A.D. 2025-Jul-26 00:00:00.0000, 1.075608381387277E+08, 4.747901513280339E+08, -6.580648636533979E+07,
2460889.500000000, A.D. 2025-Aug-02 00:00:00.0000, 9.821050805079322E+07, 4.774805653733766E+08, -6.461130897982208E+07,
2460896.500000000, A.D. 2025-Aug-09 00:00:00.0000, 8.881987576688209E+07, 4.799762916427742E+08, -6.338968335775495E+07,
2460903.500000000, A.D. 2025-Aug-16 00:00:00.0000, 7.939287795081154E+07, 4.822768931038455E+08, -6.214218370405054E+07,
2460910.500000000, A.D. 2025-Aug-23 00:00:00.0000, 6.993344246572512E+07, 4.843820080271922E+08, -6.086939072844426E+07,
2460917.500000000, A.D. 2025-Aug-30 00:00:00.0000, 6.044548822740802E+07, 4.862913494827335E+08, -5.957189146456145E+07,
2460924.500000000, A.D. 2025-Sep-06 00:00:00.0000, 5.093292435882344E+07, 4.880047064073337E+08, -5.825027889773135E+07,
2460931.500000000, A.D. 2025-Sep-13 00:00:00.0000, 4.139964697439764E+07, 4.895219437588945E+08, -5.690515145015550E+07,
2460938.500000000, A.D. 2025-Sep-20 00:00:00.0000, 3.184953686384663E+07, 4.908430001120249E+08, -5.553711275704959E+07,
2460945.500000000, A.D. 2025-Sep-27 00:00:00.0000, 2.228645913182819E+07, 4.919678858101463E+08, -5.414677157676111E+07,
2460952.500000000, A.D. 2025-Oct-04 00:00:00.0000, 1.271426277611976E+07, 4.928966822156457E+08, -5.273474160602054E+07,
2460959.500000000, A.D. 2025-Oct-11 00:00:00.0000, 3.136779829885644E+06, 4.936295411166691E+08, -5.130164124309239E+07,
2460966.500000000, A.D. 2025-Oct-18 00:00:00.0000, -6.442175648911099E+06, 4.941666840178592E+08, -4.984809334730253E+07,
2460973.500000000, A.D. 2025-Oct-25 00:00:00.0000, -1.601880860184911E+07, 4.945084013274473E+08, -4.837472500685170E+07,
2460980.500000000, A.D. 2025-Nov-01 00:00:00.0000, -2.558934396927340E+07, 4.946550514571768E+08, -4.688216731721449E+07,
2460987.500000000, A.D. 2025-Nov-08 00:00:00.0000, -3.515002763068494E+07, 4.946070598044076E+08, -4.537105517578062E+07,
2460994.500000000, A.D. 2025-Nov-15 00:00:00.0000, -4.469712713952520E+07, 4.943649175585651E+08, -4.384202711101794E+07,
2461001.500000000, A.D. 2025-Nov-22 00:00:00.0000, -5.422693185098667E+07, 4.939291805529456E+08, -4.229572516508931E+07,
2461008.500000000, A.D. 2025-Nov-29 00:00:00.0000, -6.373575259735855E+07, 4.933004692984731E+08, -4.073279472325709E+07,
2461015.500000000, A.D. 2025-Dec-06 00:00:00.0000, -7.321992318856718E+07, 4.924794700648528E+08, -3.915388409246162E+07,
2461022.500000000, A.D. 2025-Dec-13 00:00:00.0000, -8.267580330441834E+07, 4.914669336378077E+08, -3.755964414384916E+07,
2461029.500000000, A.D. 2025-Dec-20 00:00:00.0000, -9.209977928759056E+07, 4.902636727754810E+08, -3.595072825565404E+07,
2461036.500000000, A.D. 2025-Dec-27 00:00:00.0000, -1.014882639124307E+08, 4.888705609577590E+08, -3.432779224636999E+07,
2461043.500000000, A.D. 2026-Jan-03 00:00:00.0000, -1.108376965887568E+08, 4.872885318139205E+08, -3.269149421454716E+07,
2461050.500000000, A.D. 2026-Jan-10 00:00:00.0000, -1.201445438915670E+08, 4.855185785497748E+08, -3.104249435036430E+07,
2461057.500000000, A.D. 2026-Jan-17 00:00:00.0000, -1.294053001852992E+08, 4.835617532832394E+08, -2.938145474746418E+07,
2461064.500000000, A.D. 2026-Jan-24 00:00:00.0000, -1.386164882660600E+08, 4.814191663120571E+08, -2.770903922010949E+07,
2461071.500000000, A.D. 2026-Jan-31 00:00:00.0000, -1.477746599997270E+08, 4.790919853076628E+08, -2.602591312824634E+07,
2461078.500000000, A.D. 2026-Feb-07 00:00:00.0000, -1.568763968956333E+08, 4.765814343795165E+08, -2.433274322066081E+07,
2461085.500000000, A.D. 2026-Feb-14 00:00:00.0000, -1.659183103638501E+08, 4.738887929963269E+08, -2.263019752055845E+07,
2461092.500000000, A.D. 2026-Feb-21 00:00:00.0000, -1.748970412695752E+08, 4.710153953429481E+08, -2.091894524183789E+07,
2461099.500000000, A.D. 2026-Feb-28 00:00:00.0000, -1.838092598704806E+08, 4.679626312686343E+08, -1.919965654230136E+07,
2461106.500000000, A.D. 2026-Mar-07 00:00:00.0000, -1.926516681953027E+08, 4.647319468783538E+08, -1.747300208434013E+07,
2461113.500000000, A.D. 2026-Mar-14 00:00:00.0000, -2.014210020874537E+08, 4.613248424332953E+08, -1.573965284790531E+07,
2461120.500000000, A.D. 2026-Mar-21 00:00:00.0000, -2.101140311325489E+08, 4.577428704581990E+08, -1.400028012222072E+07,
2461127.500000000, A.D. 2026-Mar-28 00:00:00.0000, -2.187275584805327E+08, 4.539876350860596E+08, -1.225555540801102E+07,
2461134.500000000, A.D. 2026-Apr-04 00:00:00.0000, -2.272584211661546E+08, 4.500607916753705E+08, -1.050615025372937E+07,
2461141.500000000, A.D. 2026-Apr-11 00:00:00.0000, -2.357034906541240E+08, 4.459640463399933E+08, -8.752736080135226E+06,
2461148.500000000, A.D. 2026-Apr-18 00:00:00.0000, -2.440596734500023E+08, 4.416991553851785E+08, -6.995984008223534E+06,
2461155.500000000, A.D. 2026-Apr-25 00:00:00.0000, -2.523239117310153E+08, 4.372679246648016E+08, -5.236564693378836E+06,
2461162.500000000, A.D. 2026-May-02 00:00:00.0000, -2.604931839655975E+08, 4.326722088303569E+08, -3.475148170865715E+06,
2461169.500000000, A.D. 2026-May-09 00:00:00.0000, -2.685645053961701E+08, 4.279139104051055E+08, -1.712403729367465E+06,
2461176.500000000, A.D. 2026-May-16 00:00:00.0000, -2.765349280063692E+08, 4.229949788205853E+08, 5.100016418728232E+04,
2461183.500000000, A.D. 2026-May-23 00:00:00.0000, -2.844015399210020E+08, 4.179174104364498E+08, 1.814395967352480E+06,
2461190.500000000, A.D. 2026-May-30 00:00:00.0000, -2.921614663184639E+08, 4.126832498629066E+08, 3.577117409050643E+06,
2461197.500000000, A.D. 2026-Jun-06 00:00:00.0000, -2.998118721734589E+08, 4.072945893125867E+08, 5.338499841993392E+06,
2461204.500000000, A.D. 2026-Jun-13 00:00:00.0000, -3.073499631641806E+08, 4.017535661796755E+08, 7.097880280583411E+06,
2461211.500000000, A.D. 2026-Jun-20 00:00:00.0000, -3.147729852469449E+08, 3.960623617724947E+08, 8.854597409129620E+06,
2461218.500000000, A.D. 2026-Jun-27 00:00:00.0000, -3.220782245978000E+08, 3.902232008614622E+08, 1.060799168798497E+07,
2461225.500000000, A.D. 2026-Jul-04 00:00:00.0000, -3.292630079208810E+08, 3.842383512681198E+08, 1.235740549403253E+07,
2461232.500000000, A.D. 2026-Jul-11 00:00:00.0000, -3.363247028692492E+08, 3.781101233627853E+08, 1.410218326127836E+07,
2461239.500000000, A.D. 2026-Jul-18 00:00:00.0000, -3.432607184855518E+08, 3.718408694957877E+08, 1.584167161499833E+07,
2461246.500000000, A.D. 2026-Jul-25 00:00:00.0000, -3.500685056383453E+08, 3.654329833642635E+08, 1.757521949730465E+07,
2461253.500000000, A.D. 2026-Aug-01 00:00:00.0000, -3.567455574063717E+08, 3.588888992657059E+08, 1.930217827571878E+07,
2461260.500000000, A.D. 2026-Aug-08 00:00:00.0000, -3.632894091963339E+08, 3.522110912017075E+08, 2.102190181209941E+07,
2461267.500000000, A.D. 2026-Aug-15 00:00:00.0000, -3.696976381796715E+08, 3.454020722815500E+08, 2.273374649071380E+07,
2461274.500000000, A.D. 2026-Aug-22 00:00:00.0000, -3.759678628104619E+08, 3.384643956463778E+08, 2.443707137515612E+07,
2461281.500000000, A.D. 2026-Aug-29 00:00:00.0000, -3.820977447150262E+08, 3.314006555416706E+08, 2.613123859200850E+07,
2461288.500000000, A.D. 2026-Sep-05 00:00:00.0000, -3.880849908194249E+08, 3.242134856702321E+08, 2.781561351135804E+07,
2461295.500000000, A.D. 2026-Sep-12 00:00:00.0000, -3.939273532591640E+08, 3.169055573195526E+08, 2.948956470318669E+07,
$$EOE